[
  { "name": "Jordan", "code": "JO", "emoji": "ğŸ‡¯ğŸ‡´", "unicode": "U+1F1F0 U+1F1F4", "image": "JO.svg", "dial_code": "+962", "nameAr": "Ø§Ù„Ø£Ø±Ø¯Ù†" },
  { "name": "Syria", "code": "SY", "emoji": "ğŸ‡¸ğŸ‡¾", "unicode": "U+1F1F8 U+1F1FE", "image": "SY.svg", "dial_code": "+963", "nameAr": "Ø³ÙˆØ±ÙŠØ§" },
  { "name": "Iraq", "code": "IQ", "emoji": "ğŸ‡®ğŸ‡¶", "unicode": "U+1F1EE U+1F1F6", "image": "IQ.svg", "dial_code": "+964", "nameAr": "Ø§Ù„Ø¹Ø±Ø§Ù‚" },
  { "name": "Saudi Arabia", "code": "SA", "emoji": "ğŸ‡¸ğŸ‡¦", "unicode": "U+1F1F8 U+1F1E6", "image": "SA.svg", "dial_code": "+966", "nameAr": "Ø§Ù„Ù…Ù…Ù„ÙƒØ© Ø§Ù„Ø¹Ø±Ø¨ÙŠØ© Ø§Ù„Ø³Ø¹ÙˆØ¯ÙŠØ©" },
  { "name": "United Arab Emirates", "code": "AE", "emoji": "ğŸ‡¦ğŸ‡ª", "unicode": "U+1F1E6 U+1F1EA", "image": "AE.svg", "dial_code": "+971", "nameAr": "Ø§Ù„Ø¥Ù…Ø§Ø±Ø§Øª Ø§Ù„Ø¹Ø±Ø¨ÙŠØ© Ø§Ù„Ù…ØªØ­Ø¯Ø©" },
  { "name": "Egypt", "code": "EG", "emoji": "ğŸ‡ªğŸ‡¬", "unicode": "U+1F1E9 U+1F1EC", "image": "EG.svg", "dial_code": "+20", "nameAr": "Ù…ØµØ±" },
  { "name": "Palestine", "code": "PS", "emoji": "ğŸ‡µğŸ‡¸", "unicode": "U+1F1F5 U+1F1F8", "image": "PS.svg", "dial_code": "+970", "nameAr": "ÙÙ„Ø³Ø·ÙŠÙ†" },
  { "name": "Palestine", "code": "PS", "emoji": "ğŸ‡µğŸ‡¸", "unicode": "U+1F1F5 U+1F1F8", "image": "PS.svg", "dial_code": "+972", "nameAr": "ÙÙ„Ø³Ø·ÙŠÙ†" },

  { "name": "Afghanistan", "code": "AF", "emoji": "ğŸ‡¦ğŸ‡«", "unicode": "U+1F1E6 U+1F1EB", "image": "AF.svg", "dial_code": "+93", "nameAr": "Ø£ÙØºØ§Ù†Ø³ØªØ§Ù†" },
  { "name": "Albania", "code": "AL", "emoji": "ğŸ‡¦ğŸ‡±", "unicode": "U+1F1E6 U+1F1F1", "image": "AL.svg", "dial_code": "+355", "nameAr": "Ø£Ù„Ø¨Ø§Ù†ÙŠØ§" },
  { "name": "Algeria", "code": "DZ", "emoji": "ğŸ‡©ğŸ‡¿", "unicode": "U+1F1E9 U+1F1FF", "image": "DZ.svg", "dial_code": "+213", "nameAr": "Ø§Ù„Ø¬Ø²Ø§Ø¦Ø±" },
  { "name": "Andorra", "code": "AD", "emoji": "ğŸ‡¦ğŸ‡©", "unicode": "U+1F1E6 U+1F1E9", "image": "AD.svg", "dial_code": "+376", "nameAr": "Ø£Ù†Ø¯ÙˆØ±Ø§" },
  { "name": "Angola", "code": "AO", "emoji": "ğŸ‡¦ğŸ‡´", "unicode": "U+1F1E6 U+1F1F4", "image": "AO.svg", "dial_code": "+244", "nameAr": "Ø£Ù†ØºÙˆÙ„Ø§" },
  { "name": "Antigua and Barbuda", "code": "AG", "emoji": "ğŸ‡¦ğŸ‡¬", "unicode": "U+1F1E6 U+1F1EC", "image": "AG.svg", "dial_code": "+1-268", "nameAr": "Ø£Ù†ØªÙŠØºÙˆØ§ ÙˆØ¨Ø±Ø¨ÙˆØ¯Ø§" },
  { "name": "Argentina", "code": "AR", "emoji": "ğŸ‡¦ğŸ‡·", "unicode": "U+1F1E6 U+1F1F7", "image": "AR.svg", "dial_code": "+54", "nameAr": "Ø§Ù„Ø£Ø±Ø¬Ù†ØªÙŠÙ†" },
  { "name": "Armenia", "code": "AM", "emoji": "ğŸ‡¦ğŸ‡²", "unicode": "U+1F1E6 U+1F1F2", "image": "AM.svg", "dial_code": "+374", "nameAr": "Ø£Ø±Ù…ÙŠÙ†ÙŠØ§" },
  { "name": "Australia", "code": "AU", "emoji": "ğŸ‡¦ğŸ‡º", "unicode": "U+1F1E6 U+1F1FA", "image": "AU.svg", "dial_code": "+61", "nameAr": "Ø£Ø³ØªØ±Ø§Ù„ÙŠØ§" },
  { "name": "Austria", "code": "AT", "emoji": "ğŸ‡¦ğŸ‡¹", "unicode": "U+1F1E6 U+1F1F9", "image": "AT.svg", "dial_code": "+43", "nameAr": "Ø§Ù„Ù†Ù…Ø³Ø§" },
  { "name": "Azerbaijan", "code": "AZ", "emoji": "ğŸ‡¦ğŸ‡¿", "unicode": "U+1F1E6 U+1F1FF", "image": "AZ.svg", "dial_code": "+994", "nameAr": "Ø£Ø°Ø±Ø¨ÙŠØ¬Ø§Ù†" },
  { "name": "Bahamas", "code": "BS", "emoji": "ğŸ‡§ğŸ‡¸", "unicode": "U+1F1E7 U+1F1F8", "image": "BS.svg", "dial_code": "+1-242", "nameAr": "Ø§Ù„Ø¨Ø§Ù‡Ø§Ù…Ø§" },
  { "name": "Bahrain", "code": "BH", "emoji": "ğŸ‡§ğŸ‡­", "unicode": "U+1F1E7 U+1F1ED", "image": "BH.svg", "dial_code": "+973", "nameAr": "Ø§Ù„Ø¨Ø­Ø±ÙŠÙ†" },
  { "name": "Bangladesh", "code": "BD", "emoji": "ğŸ‡§ğŸ‡©", "unicode": "U+1F1E7 U+1F1E9", "image": "BD.svg", "dial_code": "+880", "nameAr": "Ø¨Ù†ØºÙ„Ø§Ø¯ÙŠØ´" },
  { "name": "Barbados", "code": "BB", "emoji": "ğŸ‡§ğŸ‡§", "unicode": "U+1F1E7 U+1F1E7", "image": "BB.svg", "dial_code": "+1-246", "nameAr": "Ø¨Ø±Ø¨Ø§Ø¯ÙˆØ³" },
  { "name": "Belarus", "code": "BY", "emoji": "ğŸ‡§ğŸ‡¾", "unicode": "U+1F1E7 U+1F1FE", "image": "BY.svg", "dial_code": "+375", "nameAr": "Ø¨ÙŠÙ„Ø§Ø±ÙˆØ³ÙŠØ§" },
  { "name": "Belgium", "code": "BE", "emoji": "ğŸ‡§ğŸ‡ª", "unicode": "U+1F1E7 U+1F1EA", "image": "BE.svg", "dial_code": "+32", "nameAr": "Ø¨Ù„Ø¬ÙŠÙƒØ§" },
  { "name": "Belize", "code": "BZ", "emoji": "ğŸ‡§ğŸ‡¿", "unicode": "U+1F1E7 U+1F1FF", "image": "BZ.svg", "dial_code": "+501", "nameAr": "Ø¨Ù„ÙŠØ²" },
  { "name": "Benin", "code": "BJ", "emoji": "ğŸ‡§ğŸ‡¯", "unicode": "U+1F1E7 U+1F1EF", "image": "BJ.svg", "dial_code": "+229", "nameAr": "Ø¨Ù†ÙŠÙ†" },
  { "name": "Bhutan", "code": "BT", "emoji": "ğŸ‡§ğŸ‡¹", "unicode": "U+1F1E7 U+1F1F9", "image": "BT.svg", "dial_code": "+975", "nameAr": "Ø¨ÙˆØªØ§Ù†" },
  { "name": "Bolivia", "code": "BO", "emoji": "ğŸ‡§ğŸ‡´", "unicode": "U+1F1E7 U+1F1F4", "image": "BO.svg", "dial_code": "+591", "nameAr": "Ø¨ÙˆÙ„ÙŠÙÙŠØ§" },
  { "name": "Bosnia and Herzegovina", "code": "BA", "emoji": "ğŸ‡§ğŸ‡¦", "unicode": "U+1F1E7 U+1F1E6", "image": "BA.svg", "dial_code": "+387", "nameAr": "Ø§Ù„Ø¨ÙˆØ³Ù†Ø© ÙˆØ§Ù„Ù‡Ø±Ø³Ùƒ" },
  { "name": "Botswana", "code": "BW", "emoji": "ğŸ‡§ğŸ‡¼", "unicode": "U+1F1E7 U+1F1FC", "image": "BW.svg", "dial_code": "+267", "nameAr": "Ø¨ÙˆØªØ³ÙˆØ§Ù†Ø§" },
  { "name": "Brazil", "code": "BR", "emoji": "ğŸ‡§ğŸ‡·", "unicode": "U+1F1E7 U+1F1F7", "image": "BR.svg", "dial_code": "+55", "nameAr": "Ø§Ù„Ø¨Ø±Ø§Ø²ÙŠÙ„" },
  { "name": "Brunei", "code": "BN", "emoji": "ğŸ‡§ğŸ‡³", "unicode": "U+1F1E7 U+1F1F3", "image": "BN.svg", "dial_code": "+673", "nameAr": "Ø¨Ø±ÙˆÙ†Ø§ÙŠ" },
  { "name": "Bulgaria", "code": "BG", "emoji": "ğŸ‡§ğŸ‡¬", "unicode": "U+1F1E7 U+1F1EC", "image": "BG.svg", "dial_code": "+359", "nameAr": "Ø¨Ù„ØºØ§Ø±ÙŠØ§" },
  { "name": "Burkina Faso", "code": "BF", "emoji": "ğŸ‡§ğŸ‡«", "unicode": "U+1F1E7 U+1F1EB", "image": "BF.svg", "dial_code": "+226", "nameAr": "Ø¨ÙˆØ±ÙƒÙŠÙ†Ø§ ÙØ§Ø³Ùˆ" },
  { "name": "Burundi", "code": "BI", "emoji": "ğŸ‡§ğŸ‡®", "unicode": "U+1F1E7 U+1F1EE", "image": "BI.svg", "dial_code": "+257", "nameAr": "Ø¨ÙˆØ±ÙˆÙ†Ø¯ÙŠ" },
  { "name": "Cabo Verde", "code": "CV", "emoji": "ğŸ‡¨ğŸ‡»", "unicode": "U+1F1E8 U+1F1FB", "image": "CV.svg", "dial_code": "+238", "nameAr": "Ø§Ù„Ø±Ø£Ø³ Ø§Ù„Ø£Ø®Ø¶Ø±" },
  { "name": "Cambodia", "code": "KH", "emoji": "ğŸ‡°ğŸ‡­", "unicode": "U+1F1F0 U+1F1ED", "image": "KH.svg", "dial_code": "+855", "nameAr": "ÙƒÙ…Ø¨ÙˆØ¯ÙŠØ§" },
  { "name": "Cameroon", "code": "CM", "emoji": "ğŸ‡¨ğŸ‡²", "unicode": "U+1F1E8 U+1F1F2", "image": "CM.svg", "dial_code": "+237", "nameAr": "Ø§Ù„ÙƒØ§Ù…ÙŠØ±ÙˆÙ†" },
  { "name": "Canada", "code": "CA", "emoji": "ğŸ‡¨ğŸ‡¦", "unicode": "U+1F1E8 U+1F1E6", "image": "CA.svg", "dial_code": "+1", "nameAr": "ÙƒÙ†Ø¯Ø§" },
  { "name": "Central African Republic", "code": "CF", "emoji": "ğŸ‡¨ğŸ‡«", "unicode": "U+1F1E8 U+1F1EB", "image": "CF.svg", "dial_code": "+236", "nameAr": "Ø¬Ù…Ù‡ÙˆØ±ÙŠØ© Ø¥ÙØ±ÙŠÙ‚ÙŠØ§ Ø§Ù„ÙˆØ³Ø·Ù‰" },
  { "name": "Chad", "code": "TD", "emoji": "ğŸ‡¹ğŸ‡©", "unicode": "U+1F1F9 U+1F1E9", "image": "TD.svg", "dial_code": "+235", "nameAr": "ØªØ´Ø§Ø¯" },
  { "name": "Chile", "code": "CL", "emoji": "ğŸ‡¨ğŸ‡±", "unicode": "U+1F1E8 U+1F1F1", "image": "CL.svg", "dial_code": "+56", "nameAr": "Ø´ÙŠÙ„ÙŠ" },
  { "name": "China", "code": "CN", "emoji": "ğŸ‡¨ğŸ‡³", "unicode": "U+1F1E8 U+1F1F3", "image": "CN.svg", "dial_code": "+86", "nameAr": "Ø§Ù„ØµÙŠÙ†" },
  { "name": "Colombia", "code": "CO", "emoji": "ğŸ‡¨ğŸ‡´", "unicode": "U+1F1E8 U+1F1F4", "image": "CO.svg", "dial_code": "+57", "nameAr": "ÙƒÙˆÙ„ÙˆÙ…Ø¨ÙŠØ§" },
  { "name": "Comoros", "code": "KM", "emoji": "ğŸ‡°ğŸ‡²", "unicode": "U+1F1F0 U+1F1F2", "image": "KM.svg", "dial_code": "+269", "nameAr": "Ø¬Ø²Ø± Ø§Ù„Ù‚Ù…Ø±" },
  { "name": "Congo (Congo-Brazzaville)", "code": "CG", "emoji": "ğŸ‡¨ğŸ‡¬", "unicode": "U+1F1E8 U+1F1EC", "image": "CG.svg", "dial_code": "+242", "nameAr": "Ø§Ù„ÙƒÙˆÙ†ØºÙˆ (Ø§Ù„ÙƒÙˆÙ†ØºÙˆ Ø¨Ø±Ø§Ø²Ø§ÙÙŠÙ„)" },
  { "name": "Costa Rica", "code": "CR", "emoji": "ğŸ‡¨ğŸ‡·", "unicode": "U+1F1E8 U+1F1F7", "image": "CR.svg", "dial_code": "+506", "nameAr": "ÙƒÙˆØ³ØªØ§Ø±ÙŠÙƒØ§" },
  { "name": "Croatia", "code": "HR", "emoji": "ğŸ‡­ğŸ‡·", "unicode": "U+1F1ED U+1F1F7", "image": "HR.svg", "dial_code": "+385", "nameAr": "ÙƒØ±ÙˆØ§ØªÙŠØ§" },
  { "name": "Cuba", "code": "CU", "emoji": "ğŸ‡¨ğŸ‡º", "unicode": "U+1F1E8 U+1F1FA", "image": "CU.svg", "dial_code": "+53", "nameAr": "ÙƒÙˆØ¨Ø§" },
  { "name": "Cyprus", "code": "CY", "emoji": "ğŸ‡¨ğŸ‡¾", "unicode": "U+1F1E8 U+1F1FE", "image": "CY.svg", "dial_code": "+357", "nameAr": "Ù‚Ø¨Ø±Øµ" },
  { "name": "Czechia (Czech Republic)", "code": "CZ", "emoji": "ğŸ‡¨ğŸ‡¿", "unicode": "U+1F1E8 U+1F1FF", "image": "CZ.svg", "dial_code": "+420", "nameAr": "Ø§Ù„ØªØ´ÙŠÙƒ" },
  { "name": "Denmark", "code": "DK", "emoji": "ğŸ‡©ğŸ‡°", "unicode": "U+1F1E9 U+1F1F0", "image": "DK.svg", "dial_code": "+45", "nameAr": "Ø§Ù„Ø¯Ø§Ù†Ù…Ø§Ø±Ùƒ" },
  { "name": "Djibouti", "code": "DJ", "emoji": "ğŸ‡©ğŸ‡¯", "unicode": "U+1F1E9 U+1F1EF", "image": "DJ.svg", "dial_code": "+253", "nameAr": "Ø¬ÙŠØ¨ÙˆØªÙŠ" },
  { "name": "Dominica", "code": "DM", "emoji": "ğŸ‡©ğŸ‡²", "unicode": "U+1F1E9 U+1F1F2", "image": "DM.svg", "dial_code": "+1-767", "nameAr": "Ø¯ÙˆÙ…ÙŠÙ†ÙŠÙƒØ§" },
  { "name": "Dominican Republic", "code": "DO", "emoji": "ğŸ‡©ğŸ‡´", "unicode": "U+1F1E9 U+1F1F4", "image": "DO.svg", "dial_code": "+1-809", "nameAr": "Ø¬Ù…Ù‡ÙˆØ±ÙŠØ© Ø§Ù„Ø¯ÙˆÙ…ÙŠÙ†ÙŠÙƒØ§Ù†" },
  { "name": "Ecuador", "code": "EC", "emoji": "ğŸ‡ªğŸ‡¨", "unicode": "U+1F1E8 U+1F1E8", "image": "EC.svg", "dial_code": "+593", "nameAr": "Ø§Ù„Ø¥ÙƒÙˆØ§Ø¯ÙˆØ±" },

  { "name": "El Salvador", "code": "SV", "emoji": "ğŸ‡¸ğŸ‡»", "unicode": "U+1F1F8 U+1F1FB", "image": "SV.svg", "dial_code": "+503", "nameAr": "Ø§Ù„Ø³Ù„ÙØ§Ø¯ÙˆØ±" },
  { "name": "Equatorial Guinea", "code": "GQ", "emoji": "ğŸ‡¬ğŸ‡¶", "unicode": "U+1F1EC U+1F1F6", "image": "GQ.svg", "dial_code": "+240", "nameAr": "ØºÙŠÙ†ÙŠØ§ Ø§Ù„Ø§Ø³ØªÙˆØ§Ø¦ÙŠØ©" },
  { "name": "Eritrea", "code": "ER", "emoji": "ğŸ‡ªğŸ‡·", "unicode": "U+1F1E9 U+1F1F7", "image": "ER.svg", "dial_code": "+291", "nameAr": "Ø¥Ø±ÙŠØªØ±ÙŠØ§" },
  { "name": "Estonia", "code": "EE", "emoji": "ğŸ‡ªğŸ‡ª", "unicode": "U+1F1EA U+1F1EA", "image": "EE.svg", "dial_code": "+372", "nameAr": "Ø¥Ø³ØªÙˆÙ†ÙŠØ§" },
  { "name": "Eswatini (fmr. 'Swaziland')", "code": "SZ", "emoji": "ğŸ‡¸ğŸ‡¿", "unicode": "U+1F1F8 U+1F1FF", "image": "SZ.svg", "dial_code": "+268", "nameAr": "Ø¥Ø³ÙˆØ§ØªÙŠÙ†ÙŠ (Ø³ÙˆØ§Ø²ÙŠÙ„Ø§Ù†Ø¯ Ø³Ø§Ø¨Ù‚Ù‹Ø§)" },
  { "name": "Ethiopia", "code": "ET", "emoji": "ğŸ‡ªğŸ‡¹", "unicode": "U+1F1E9 U+1F1F3", "image": "ET.svg", "dial_code": "+251", "nameAr": "Ø¥Ø«ÙŠÙˆØ¨ÙŠØ§" },
  { "name": "Fiji", "code": "FJ", "emoji": "ğŸ‡«ğŸ‡¯", "unicode": "U+1F1E8 U+1F1EF", "image": "FJ.svg", "dial_code": "+679", "nameAr": "ÙÙŠØ¬ÙŠ" },
  { "name": "Finland", "code": "FI", "emoji": "ğŸ‡«ğŸ‡®", "unicode": "U+1F1E8 U+1F1EE", "image": "FI.svg", "dial_code": "+358", "nameAr": "ÙÙ†Ù„Ù†Ø¯Ø§" },
  { "name": "France", "code": "FR", "emoji": "ğŸ‡«ğŸ‡·", "unicode": "U+1F1E8 U+1F1F7", "image": "FR.svg", "dial_code": "+33", "nameAr": "ÙØ±Ù†Ø³Ø§" },
  { "name": "Gabon", "code": "GA", "emoji": "ğŸ‡¬ğŸ‡¦", "unicode": "U+1F1E6 U+1F1E6", "image": "GA.svg", "dial_code": "+241", "nameAr": "Ø§Ù„ØºØ§Ø¨ÙˆÙ†" },
  { "name": "Gambia", "code": "GM", "emoji": "ğŸ‡²ğŸ‡²", "unicode": "U+1F1E7 U+1F1F2", "image": "GM.svg", "dial_code": "+220", "nameAr": "ØºØ§Ù…Ø¨ÙŠØ§" },
  { "name": "Georgia", "code": "GE", "emoji": "ğŸ‡¬ğŸ‡ª", "unicode": "U+1F1E9 U+1F1EA", "image": "GE.svg", "dial_code": "+995", "nameAr": "Ø¬ÙˆØ±Ø¬ÙŠØ§" },
  { "name": "Germany", "code": "DE", "emoji": "ğŸ‡©ğŸ‡ª", "unicode": "U+1F1E9 U+1F1E9", "image": "DE.svg", "dial_code": "+49", "nameAr": "Ø£Ù„Ù…Ø§Ù†ÙŠØ§" },
  { "name": "Ghana", "code": "GH", "emoji": "ğŸ‡¬ğŸ‡­", "unicode": "U+1F1E7 U+1F1ED", "image": "GH.svg", "dial_code": "+233", "nameAr": "ØºØ§Ù†Ø§" },
  { "name": "Greece", "code": "GR", "emoji": "ğŸ‡¬ğŸ‡·", "unicode": "U+1F1E7 U+1F1F7", "image": "GR.svg", "dial_code": "+30", "nameAr": "Ø§Ù„ÙŠÙˆÙ†Ø§Ù†" },
  { "name": "Grenada", "code": "GD", "emoji": "ğŸ‡²ğŸ‡²", "unicode": "U+1F1E9 U+1F1E9", "image": "GD.svg", "dial_code": "+1-473", "nameAr": "ØºØ±ÙŠÙ†Ø§Ø¯Ø§" },
  { "name": "Guatemala", "code": "GT", "emoji": "ğŸ‡²ğŸ‡²", "unicode": "U+1F1E9 U+1F1F9", "image": "GT.svg", "dial_code": "+502", "nameAr": "ØºÙˆØ§ØªÙŠÙ…Ø§Ù„Ø§" },
  { "name": "Guinea", "code": "GN", "emoji": "ğŸ‡²ğŸ‡²", "unicode": "U+1F1E9 U+1F1F3", "image": "GN.svg", "dial_code": "+224", "nameAr": "ØºÙŠÙ†ÙŠØ§" },
  { "name": "Guinea-Bissau", "code": "GW", "emoji": "ğŸ‡²ğŸ‡²", "unicode": "U+1F1E9 U+1F1FC", "image": "GW.svg", "dial_code": "+245", "nameAr": "ØºÙŠÙ†ÙŠØ§ Ø¨ÙŠØ³Ø§Ùˆ" },
  { "name": "Guyana", "code": "GY", "emoji": "ğŸ‡²ğŸ‡²", "unicode": "U+1F1E9 U+1F1FE", "image": "GY.svg", "dial_code": "+592", "nameAr": "ØºÙŠØ§Ù†Ø§" },
  { "name": "Haiti", "code": "HT", "emoji": "ğŸ‡­ğŸ‡¹", "unicode": "U+1F1F8 U+1F1F9", "image": "HT.svg", "dial_code": "+509", "nameAr": "Ù‡Ø§ÙŠØªÙŠ" },
  { "name": "Honduras", "code": "HN", "emoji": "ğŸ‡­ğŸ‡³", "unicode": "U+1F1E8 U+1F1F3", "image": "HN.svg", "dial_code": "+504", "nameAr": "Ù‡Ù†Ø¯ÙˆØ±Ø§Ø³" },
  { "name": "Hungary", "code": "HU", "emoji": "ğŸ‡­ğŸ‡º", "unicode": "U+1F1ED U+1F1FA", "image": "HU.svg", "dial_code": "+36", "nameAr": "Ù‡Ù†ØºØ§Ø±ÙŠØ§" },
  { "name": "Iceland", "code": "IS", "emoji": "ğŸ‡®ğŸ‡¸", "unicode": "U+1F1EE U+1F1F8", "image": "IS.svg", "dial_code": "+354", "nameAr": "Ø¢ÙŠØ³Ù„Ù†Ø¯Ø§" },
  { "name": "India", "code": "IN", "emoji": "ğŸ‡®ğŸ‡³", "unicode": "U+1F1EE U+1F1F3", "image": "IN.svg", "dial_code": "+91", "nameAr": "Ø§Ù„Ù‡Ù†Ø¯" },
  { "name": "Indonesia", "code": "ID", "emoji": "ğŸ‡®ğŸ‡©", "unicode": "U+1F1E9 U+1F1E9", "image": "ID.svg", "dial_code": "+62", "nameAr": "Ø¥Ù†Ø¯ÙˆÙ†ÙŠØ³ÙŠØ§" },
  { "name": "Iran", "code": "IR", "emoji": "ğŸ‡®ğŸ‡·", "unicode": "U+1F1EE U+1F1F7", "image": "IR.svg", "dial_code": "+98", "nameAr": "Ø¥ÙŠØ±Ø§Ù†" },

  { "name": "Ireland", "code": "IE", "emoji": "ğŸ‡®ğŸ‡ª", "unicode": "U+1F1EE U+1F1EA", "image": "IE.svg", "dial_code": "+353", "nameAr": "Ø£ÙŠØ±Ù„Ù†Ø¯Ø§" },

  { "name": "Italy", "code": "IT", "emoji": "ğŸ‡®ğŸ‡¹", "unicode": "U+1F1EE U+1F1F9", "image": "IT.svg", "dial_code": "+39", "nameAr": "Ø¥ÙŠØ·Ø§Ù„ÙŠØ§" },
  { "name": "Jamaica", "code": "JM", "emoji": "ğŸ‡¯ğŸ‡²", "unicode": "U+1F1F0 U+1F1F2", "image": "JM.svg", "dial_code": "+1-876", "nameAr": "Ø¬Ø§Ù…Ø§ÙŠÙƒØ§" },
  { "name": "Japan", "code": "JP", "emoji": "ğŸ‡¯ğŸ‡µ", "unicode": "U+1F1EF U+1F1F5", "image": "JP.svg", "dial_code": "+81", "nameAr": "Ø§Ù„ÙŠØ§Ø¨Ø§Ù†" },

  { "name": "Kazakhstan", "code": "KZ", "emoji": "ğŸ‡°ğŸ‡¿", "unicode": "U+1F1F0 U+1F1FF", "image": "KZ.svg", "dial_code": "+7", "nameAr": "ÙƒØ§Ø²Ø§Ø®Ø³ØªØ§Ù†" },
  { "name": "Kenya", "code": "KE", "emoji": "ğŸ‡°ğŸ‡ª", "unicode": "U+1F1F0 U+1F1EA", "image": "KE.svg", "dial_code": "+254", "nameAr": "ÙƒÙŠÙ†ÙŠØ§" },
  { "name": "Kiribati", "code": "KI", "emoji": "ğŸ‡°ğŸ‡®", "unicode": "U+1F1F0 U+1F1F7", "image": "KI.svg", "dial_code": "+686", "nameAr": "ÙƒÙŠØ±ÙŠØ¨Ø§ØªÙŠ" },
  { "name": "Kuwait", "code": "KW", "emoji": "ğŸ‡°ğŸ‡¼", "unicode": "U+1F1F0 U+1F1FC", "image": "KW.svg", "dial_code": "+965", "nameAr": "Ø§Ù„ÙƒÙˆÙŠØª" },
  { "name": "Kyrgyzstan", "code": "KG", "emoji": "ğŸ‡°ğŸ‡¬", "unicode": "U+1F1F0 U+1F1EC", "image": "KG.svg", "dial_code": "+996", "nameAr": "Ù‚Ø±ØºÙŠØ²Ø³ØªØ§Ù†" },
  { "name": "Laos", "code": "LA", "emoji": "ğŸ‡±ğŸ‡¦", "unicode": "U+1F1F1 U+1F1E6", "image": "LA.svg", "dial_code": "+856", "nameAr": "Ù„Ø§ÙˆØ³" },
  { "name": "Latvia", "code": "LV", "emoji": "ğŸ‡±ğŸ‡»", "unicode": "U+1F1F1 U+1F1FB", "image": "LV.svg", "dial_code": "+371", "nameAr": "Ù„Ø§ØªÙÙŠØ§" },
  { "name": "Lebanon", "code": "LB", "emoji": "ğŸ‡±ğŸ‡§", "unicode": "U+1F1F1 U+1F1E7", "image": "LB.svg", "dial_code": "+961", "nameAr": "Ù„Ø¨Ù†Ø§Ù†" },
  { "name": "Lesotho", "code": "LS", "emoji": "ğŸ‡±ğŸ‡¸", "unicode": "U+1F1F1 U+1F1F8", "image": "LS.svg", "dial_code": "+266", "nameAr": "Ù„ÙŠØ³ÙˆØªÙˆ" },
  { "name": "Liberia", "code": "LR", "emoji": "ğŸ‡±ğŸ‡¸", "unicode": "U+1F1F1 U+1F1F7", "image": "LR.svg", "dial_code": "+231", "nameAr": "Ù„ÙŠØ¨ÙŠØ±ÙŠØ§" },
  { "name": "Libya", "code": "LY", "emoji": "ğŸ‡±ğŸ‡¾", "unicode": "U+1F1F1 U+1F1FE", "image": "LY.svg", "dial_code": "+218", "nameAr": "Ù„ÙŠØ¨ÙŠØ§" },
  { "name": "Liechtenstein", "code": "LI", "emoji": "ğŸ‡±ğŸ‡®", "unicode": "U+1F1F1 U+1F1EE", "image": "LI.svg", "dial_code": "+423", "nameAr": "Ù„ÙŠØ®ØªÙ†Ø´ØªØ§ÙŠÙ†" },
  { "name": "Lithuania", "code": "LT", "emoji": "ğŸ‡±ğŸ‡¹", "unicode": "U+1F1F1 U+1F1F9", "image": "LT.svg", "dial_code": "+370", "nameAr": "Ù„ÙŠØªÙˆØ§Ù†ÙŠØ§" },
  { "name": "Luxembourg", "code": "LU", "emoji": "ğŸ‡±ğŸ‡º", "unicode": "U+1F1F1 U+1F1FA", "image": "LU.svg", "dial_code": "+352", "nameAr": "Ù„ÙˆÙƒØ³Ù…Ø¨ÙˆØ±Øº" },
  { "name": "Madagascar", "code": "MG", "emoji": "ğŸ‡²ğŸ‡¬", "unicode": "U+1F1F2 U+1F1EC", "image": "MG.svg", "dial_code": "+261", "nameAr": "Ù…Ø¯ØºØ´Ù‚Ø±" },
  { "name": "Malawi", "code": "MW", "emoji": "ğŸ‡²ğŸ‡¼", "unicode": "U+1F1F2 U+1F1FC", "image": "MW.svg", "dial_code": "+265", "nameAr": "Ù…Ø§Ù„Ø§ÙˆÙŠ" },
  { "name": "Malaysia", "code": "MY", "emoji": "ğŸ‡²ğŸ‡¾", "unicode": "U+1F1F2 U+1F1FE", "image": "MY.svg", "dial_code": "+60", "nameAr": "Ù…Ø§Ù„ÙŠØ²ÙŠØ§" },
  { "name": "Maldives", "code": "MV", "emoji": "ğŸ‡²ğŸ‡»", "unicode": "U+1F1F2 U+1F1FB", "image": "MV.svg", "dial_code": "+960", "nameAr": "Ø§Ù„Ù…Ø§Ù„Ø¯ÙŠÙ" },
  { "name": "Mali", "code": "ML", "emoji": "ğŸ‡²ğŸ‡±", "unicode": "U+1F1F2 U+1F1F1", "image": "ML.svg", "dial_code": "+223", "nameAr": "Ù…Ø§Ù„ÙŠ" },
  { "name": "Malta", "code": "MT", "emoji": "ğŸ‡²ğŸ‡¹", "unicode": "U+1F1F2 U+1F1F9", "image": "MT.svg", "dial_code": "+356", "nameAr": "Ù…Ø§Ù„Ø·Ø§" },
  { "name": "Marshall Islands", "code": "MH", "emoji": "ğŸ‡²ğŸ‡­", "unicode": "U+1F1F2 U+1F1F3", "image": "MH.svg", "dial_code": "+692", "nameAr": "Ø¬Ø²Ø± Ù…Ø§Ø±Ø´Ø§Ù„" },
  { "name": "Mauritania", "code": "MR", "emoji": "ğŸ‡²ğŸ‡·", "unicode": "U+1F1F2 U+1F1F7", "image": "MR.svg", "dial_code": "+222", "nameAr": "Ù…ÙˆØ±ÙŠØªØ§Ù†ÙŠØ§" },
  { "name": "Mauritius", "code": "MU", "emoji": "ğŸ‡²ğŸ‡º", "unicode": "U+1F1F2 U+1F1FA", "image": "MU.svg", "dial_code": "+230", "nameAr": "Ù…ÙˆØ±ÙŠØ´ÙŠÙˆØ³" },
  { "name": "Mexico", "code": "MX", "emoji": "ğŸ‡²ğŸ‡½", "unicode": "U+1F1F2 U+1F1FD", "image": "MX.svg", "dial_code": "+52", "nameAr": "Ø§Ù„Ù…ÙƒØ³ÙŠÙƒ" },
  { "name": "Micronesia", "code": "FM", "emoji": "ğŸ‡«ğŸ‡²", "unicode": "U+1F1E8 U+1F1F2", "image": "FM.svg", "dial_code": "+691", "nameAr": "Ù…ÙŠÙƒØ±ÙˆÙ†ÙŠØ²ÙŠØ§" },
  { "name": "Moldova", "code": "MD", "emoji": "ğŸ‡²ğŸ‡©", "unicode": "U+1F1F2 U+1F1E9", "image": "MD.svg", "dial_code": "+373", "nameAr": "Ù…ÙˆÙ„Ø¯ÙˆÙØ§" },
  { "name": "Monaco", "code": "MC", "emoji": "ğŸ‡²ğŸ‡¨", "unicode": "U+1F1F2 U+1F1E8", "image": "MC.svg", "dial_code": "+377", "nameAr": "Ù…ÙˆÙ†Ø§ÙƒÙˆ" },
  { "name": "Mongolia", "code": "MN", "emoji": "ğŸ‡²ğŸ‡³", "unicode": "U+1F1F2 U+1F1F3", "image": "MN.svg", "dial_code": "+976", "nameAr": "Ù…Ù†ØºÙˆÙ„ÙŠØ§" },
  { "name": "Montenegro", "code": "ME", "emoji": "ğŸ‡²ğŸ‡ª", "unicode": "U+1F1F2 U+1F1E8", "image": "ME.svg", "dial_code": "+382", "nameAr": "Ø§Ù„Ø¬Ø¨Ù„ Ø§Ù„Ø£Ø³ÙˆØ¯" },
  { "name": "Morocco", "code": "MA", "emoji": "ğŸ‡²ğŸ‡¦", "unicode": "U+1F1F2 U+1F1E6", "image": "MA.svg", "dial_code": "+212", "nameAr": "Ø§Ù„Ù…ØºØ±Ø¨" },
  { "name": "Mozambique", "code": "MZ", "emoji": "ğŸ‡²ğŸ‡¿", "unicode": "U+1F1F2 U+1F1FF", "image": "MZ.svg", "dial_code": "+258", "nameAr": "Ù…ÙˆØ²Ù…Ø¨ÙŠÙ‚" },
  { "name": "Myanmar (formerly Burma)", "code": "MM", "emoji": "ğŸ‡²ğŸ‡²", "unicode": "U+1F1F2 U+1F1F2", "image": "MM.svg", "dial_code": "+95", "nameAr": "Ù…ÙŠØ§Ù†Ù…Ø§Ø± (Ø¨ÙˆØ±Ù†ÙŠØ§ Ø³Ø§Ø¨Ù‚Ù‹Ø§)" },
  { "name": "Namibia", "code": "NA", "emoji": "ğŸ‡³ğŸ‡¦", "unicode": "U+1F1F3 U+1F1E6", "image": "NA.svg", "dial_code": "+264", "nameAr": "Ù†Ø§Ù…ÙŠØ¨ÙŠØ§" },
  { "name": "Nauru", "code": "NR", "emoji": "ğŸ‡³ğŸ‡·", "unicode": "U+1F1F3 U+1F1F7", "image": "NR.svg", "dial_code": "+674", "nameAr": "Ù†Ø§ÙˆØ±Ùˆ" },
  { "name": "Nepal", "code": "NP", "emoji": "ğŸ‡³ğŸ‡µ", "unicode": "U+1F1F3 U+1F1F5", "image": "NP.svg", "dial_code": "+977", "nameAr": "Ù†ÙŠØ¨Ø§Ù„" },
  { "name": "Netherlands", "code": "NL", "emoji": "ğŸ‡³ğŸ‡±", "unicode": "U+1F1F3 U+1F1F1", "image": "NL.svg", "dial_code": "+31", "nameAr": "Ù‡ÙˆÙ„Ù†Ø¯Ø§" },
  { "name": "New Caledonia", "code": "NC", "emoji": "ğŸ‡³ğŸ‡¨", "unicode": "U+1F1F3 U+1F1E8", "image": "NC.svg", "dial_code": "+687", "nameAr": "ÙƒØ§Ù„ÙŠØ¯ÙˆÙ†ÙŠØ§ Ø§Ù„Ø¬Ø¯ÙŠØ¯Ø©" },
  { "name": "New Zealand", "code": "NZ", "emoji": "ğŸ‡³ğŸ‡¿", "unicode": "U+1F1F3 U+1F1FF", "image": "NZ.svg", "dial_code": "+64", "nameAr": "Ù†ÙŠÙˆØ²ÙŠÙ„Ù†Ø¯Ø§" },
  { "name": "Nicaragua", "code": "NI", "emoji": "ğŸ‡³ğŸ‡®", "unicode": "U+1F1F3 U+1F1EE", "image": "NI.svg", "dial_code": "+505", "nameAr": "Ù†ÙŠÙƒØ§Ø±Ø§ØºÙˆØ§" },
  { "name": "Niger", "code": "NE", "emoji": "ğŸ‡³ğŸ‡ª", "unicode": "U+1F1F3 U+1F1EA", "image": "NE.svg", "dial_code": "+227", "nameAr": "Ø§Ù„Ù†ÙŠØ¬Ø±" },
  { "name": "Nigeria", "code": "NG", "emoji": "ğŸ‡³ğŸ‡¬", "unicode": "U+1F1F3 U+1F1EC", "image": "NG.svg", "dial_code": "+234", "nameAr": "Ù†ÙŠØ¬ÙŠØ±ÙŠØ§" },
  { "name": "North Macedonia", "code": "MK", "emoji": "ğŸ‡²ğŸ‡°", "unicode": "U+1F1F2 U+1F1F0", "image": "MK.svg", "dial_code": "+389", "nameAr": "Ù…Ù‚Ø¯ÙˆÙ†ÙŠØ§ Ø§Ù„Ø´Ù…Ø§Ù„ÙŠØ©" },
  { "name": "Norway", "code": "NO", "emoji": "ğŸ‡³ğŸ‡´", "unicode": "U+1F1F3 U+1F1F4", "image": "NO.svg", "dial_code": "+47", "nameAr": "Ø§Ù„Ù†Ø±ÙˆÙŠØ¬" },
  { "name": "Oman", "code": "OM", "emoji": "ğŸ‡´ğŸ‡²", "unicode": "U+1F1F4 U+1F1F2", "image": "OM.svg", "dial_code": "+968", "nameAr": "Ø¹Ù…Ø§Ù†" },
  { "name": "Pakistan", "code": "PK", "emoji": "ğŸ‡µğŸ‡°", "unicode": "U+1F1F5 U+1F1F0", "image": "PK.svg", "dial_code": "+92", "nameAr": "Ø¨Ø§ÙƒØ³ØªØ§Ù†" },
  { "name": "Palau", "code": "PW", "emoji": "ğŸ‡µğŸ‡¼", "unicode": "U+1F1F5 U+1F1FC", "image": "PW.svg", "dial_code": "+680", "nameAr": "Ø¨Ø§Ù„Ø§Ùˆ" },
  { "name": "Panama", "code": "PA", "emoji": "ğŸ‡µğŸ‡¦", "unicode": "U+1F1F5 U+1F1E6", "image": "PA.svg", "dial_code": "+507", "nameAr": "Ø¨Ù†Ù…Ø§" },
  { "name": "Papua New Guinea", "code": "PG", "emoji": "ğŸ‡µğŸ‡¬", "unicode": "U+1F1F5 U+1F1EC", "image": "PG.svg", "dial_code": "+675", "nameAr": "Ø¨Ø§Ø¨ÙˆØ§ ØºÙŠÙ†ÙŠØ§ Ø§Ù„Ø¬Ø¯ÙŠØ¯Ø©" },
  { "name": "Paraguay", "code": "PY", "emoji": "ğŸ‡µğŸ‡¾", "unicode": "U+1F1F5 U+1F1FE", "image": "PY.svg", "dial_code": "+595", "nameAr": "Ø¨Ø§Ø±Ø§ØºÙˆØ§ÙŠ" },
  { "name": "Peru", "code": "PE", "emoji": "ğŸ‡µğŸ‡ª", "unicode": "U+1F1F5 U+1F1EA", "image": "PE.svg", "dial_code": "+51", "nameAr": "Ø¨ÙŠØ±Ùˆ" },
  { "name": "Philippines", "code": "PH", "emoji": "ğŸ‡µğŸ‡­", "unicode": "U+1F1F5 U+1F1ED", "image": "PH.svg", "dial_code": "+63", "nameAr": "Ø§Ù„ÙÙ„Ø¨ÙŠÙ†" },
  { "name": "Poland", "code": "PL", "emoji": "ğŸ‡µğŸ‡±", "unicode": "U+1F1F5 U+1F1F1", "image": "PL.svg", "dial_code": "+48", "nameAr": "Ø¨ÙˆÙ„Ù†Ø¯Ø§" },
  { "name": "Portugal", "code": "PT", "emoji": "ğŸ‡µğŸ‡¹", "unicode": "U+1F1F5 U+1F1F9", "image": "PT.svg", "dial_code": "+351", "nameAr": "Ø§Ù„Ø¨Ø±ØªØºØ§Ù„" },
  { "name": "Qatar", "code": "QA", "emoji": "ğŸ‡¶ğŸ‡¦", "unicode": "U+1F1F6 U+1F1E6", "image": "QA.svg", "dial_code": "+974", "nameAr": "Ù‚Ø·Ø±" },
  { "name": "Romania", "code": "RO", "emoji": "ğŸ‡·ğŸ‡´", "unicode": "U+1F1F7 U+1F1F4", "image": "RO.svg", "dial_code": "+40", "nameAr": "Ø±ÙˆÙ…Ø§Ù†ÙŠØ§" },
  { "name": "Russia", "code": "RU", "emoji": "ğŸ‡·ğŸ‡º", "unicode": "U+1F1F7 U+1F1FA", "image": "RU.svg", "dial_code": "+7", "nameAr": "Ø±ÙˆØ³ÙŠØ§" },
  { "name": "Rwanda", "code": "RW", "emoji": "ğŸ‡·ğŸ‡¼", "unicode": "U+1F1F7 U+1F1FC", "image": "RW.svg", "dial_code": "+250", "nameAr": "Ø±ÙˆØ§Ù†Ø¯Ø§" },
  { "name": "Saint Kitts and Nevis", "code": "KN", "emoji": "ğŸ‡°ğŸ‡³", "unicode": "U+1F1F0 U+1F1F3", "image": "KN.svg", "dial_code": "+1-869", "nameAr": "Ø³Ø§Ù†Øª ÙƒÙŠØªØ³ ÙˆÙ†ÙŠÙÙŠØ³" },
  { "name": "Saint Lucia", "code": "LC", "emoji": "ğŸ‡±ğŸ‡¨", "unicode": "U+1F1F1 U+1F1E8", "image": "LC.svg", "dial_code": "+1-758", "nameAr": "Ø³Ø§Ù†Øª Ù„ÙˆØ³ÙŠØ§" },
  { "name": "Saint Vincent and the Grenadines", "code": "VC", "emoji": "ğŸ‡»ğŸ‡¨", "unicode": "U+1F1FB U+1F1E8", "image": "VC.svg", "dial_code": "+1-784", "nameAr": "Ø³Ø§Ù†Øª ÙÙ†Ø³Ù†Øª ÙˆØ¬Ø²Ø± ØºØ±ÙŠÙ†Ø§Ø¯ÙŠÙ†" },
  { "name": "Samoa", "code": "WS", "emoji": "ğŸ‡¼ğŸ‡¸", "unicode": "U+1F1FC U+1F1F8", "image": "WS.svg", "dial_code": "+685", "nameAr": "Ø³Ø§Ù…ÙˆØ§" },
  { "name": "San Marino", "code": "SM", "emoji": "ğŸ‡¸ğŸ‡²", "unicode": "U+1F1F8 U+1F1F2", "image": "SM.svg", "dial_code": "+378", "nameAr": "Ø³Ø§Ù† Ù…Ø§Ø±ÙŠÙ†Ùˆ" },
  { "name": "Sao Tome and Principe", "code": "ST", "emoji": "ğŸ‡¸ğŸ‡¹", "unicode": "U+1F1F8 U+1F1F9", "image": "ST.svg", "dial_code": "+239", "nameAr": "Ø³Ø§Ùˆ ØªÙˆÙ…ÙŠ ÙˆØ¨Ø±ÙŠÙ†Ø³ÙŠØ¨ÙŠ" },

  { "name": "Senegal", "code": "SN", "emoji": "ğŸ‡¸ğŸ‡³", "unicode": "U+1F1F8 U+1F1F3", "image": "SN.svg", "dial_code": "+221", "nameAr": "Ø§Ù„Ø³Ù†ØºØ§Ù„" },
  { "name": "Serbia", "code": "RS", "emoji": "ğŸ‡·ğŸ‡¸", "unicode": "U+1F1F7 U+1F1F8", "image": "RS.svg", "dial_code": "+381", "nameAr": "ØµØ±Ø¨ÙŠØ§" },
  { "name": "Seychelles", "code": "SC", "emoji": "ğŸ‡¸ğŸ‡¨", "unicode": "U+1F1F8 U+1F1E8", "image": "SC.svg", "dial_code": "+248", "nameAr": "Ø³ÙŠØ´ÙŠÙ„" },
  { "name": "Sierra Leone", "code": "SL", "emoji": "ğŸ‡¸ğŸ‡±", "unicode": "U+1F1F8 U+1F1F1", "image": "SL.svg", "dial_code": "+232", "nameAr": "Ø³ÙŠØ±Ø§Ù„ÙŠÙˆÙ†" },
  { "name": "Singapore", "code": "SG", "emoji": "ğŸ‡¸ğŸ‡¬", "unicode": "U+1F1F8 U+1F1EC", "image": "SG.svg", "dial_code": "+65", "nameAr": "Ø³Ù†ØºØ§ÙÙˆØ±Ø©" },
  { "name": "Sint Maarten", "code": "SX", "emoji": "ğŸ‡¸ğŸ‡½", "unicode": "U+1F1F8 U+1F1F9", "image": "SX.svg", "dial_code": "+1-721", "nameAr": "Ø³Ø§Ù†Øª Ù…Ø§Ø±ØªÙ†" },
  { "name": "Slovakia", "code": "SK", "emoji": "ğŸ‡¸ğŸ‡°", "unicode": "U+1F1F8 U+1F1F0", "image": "SK.svg", "dial_code": "+421", "nameAr": "Ø³Ù„ÙˆÙØ§ÙƒÙŠØ§" },
  { "name": "Slovenia", "code": "SI", "emoji": "ğŸ‡¸ğŸ‡®", "unicode": "U+1F1F8 U+1F1EE", "image": "SI.svg", "dial_code": "+386", "nameAr": "Ø³Ù„ÙˆÙÙŠÙ†ÙŠØ§" },
  { "name": "Solomon Islands", "code": "SB", "emoji": "ğŸ‡¸ğŸ‡§", "unicode": "U+1F1F8 U+1F1E7", "image": "SB.svg", "dial_code": "+677", "nameAr": "Ø¬Ø²Ø± Ø³Ù„ÙŠÙ…Ø§Ù†" },
  { "name": "Somalia", "code": "SO", "emoji": "ğŸ‡¸ğŸ‡´", "unicode": "U+1F1F8 U+1F1F4", "image": "SO.svg", "dial_code": "+252", "nameAr": "Ø§Ù„ØµÙˆÙ…Ø§Ù„" },
  { "name": "South Africa", "code": "ZA", "emoji": "ğŸ‡¿ğŸ‡¦", "unicode": "U+1F1FF U+1F1E6", "image": "ZA.svg", "dial_code": "+27", "nameAr": "Ø¬Ù†ÙˆØ¨ Ø£ÙØ±ÙŠÙ‚ÙŠØ§" },
  { "name": "South Sudan", "code": "SS", "emoji": "ğŸ‡¸ğŸ‡¸", "unicode": "U+1F1F8 U+1F1F8", "image": "SS.svg", "dial_code": "+211", "nameAr": "Ø¬Ù†ÙˆØ¨ Ø§Ù„Ø³ÙˆØ¯Ø§Ù†" },
  { "name": "Spain", "code": "ES", "emoji": "ğŸ‡ªğŸ‡¸", "unicode": "U+1F1E8 U+1F1F8", "image": "ES.svg", "dial_code": "+34", "nameAr": "Ø¥Ø³Ø¨Ø§Ù†ÙŠØ§" },
  { "name": "Sri Lanka", "code": "LK", "emoji": "ğŸ‡±ğŸ‡°", "unicode": "U+1F1F1 U+1F1F0", "image": "LK.svg", "dial_code": "+94", "nameAr": "Ø³Ø±ÙŠÙ„Ø§Ù†ÙƒØ§" },
  { "name": "Sudan", "code": "SD", "emoji": "ğŸ‡¸ğŸ‡©", "unicode": "U+1F1F8 U+1F1E9", "image": "SD.svg", "dial_code": "+249", "nameAr": "Ø§Ù„Ø³ÙˆØ¯Ø§Ù†" },
  { "name": "Suriname", "code": "SR", "emoji": "ğŸ‡¸ğŸ‡·", "unicode": "U+1F1F8 U+1F1F7", "image": "SR.svg", "dial_code": "+597", "nameAr": "Ø³ÙˆØ±ÙŠÙ†Ø§Ù…" },
  { "name": "Sweden", "code": "SE", "emoji": "ğŸ‡¸ğŸ‡ª", "unicode": "U+1F1F8 U+1F1EA", "image": "SE.svg", "dial_code": "+46", "nameAr": "Ø§Ù„Ø³ÙˆÙŠØ¯" },
  { "name": "Switzerland", "code": "CH", "emoji": "ğŸ‡¨ğŸ‡­", "unicode": "U+1F1E8 U+1F1ED", "image": "CH.svg", "dial_code": "+41", "nameAr": "Ø³ÙˆÙŠØ³Ø±Ø§" },

  { "name": "Taiwan", "code": "TW", "emoji": "ğŸ‡¹ğŸ‡¼", "unicode": "U+1F1F9 U+1F1FC", "image": "TW.svg", "dial_code": "+886", "nameAr": "ØªØ§ÙŠÙˆØ§Ù†" },
  { "name": "Tajikistan", "code": "TJ", "emoji": "ğŸ‡¹ğŸ‡¯", "unicode": "U+1F1F9 U+1F1EF", "image": "TJ.svg", "dial_code": "+992", "nameAr": "Ø·Ø§Ø¬ÙŠÙƒØ³ØªØ§Ù†" },
  { "name": "Tanzania", "code": "TZ", "emoji": "ğŸ‡¹ğŸ‡¿", "unicode": "U+1F1F9 U+1F1FF", "image": "TZ.svg", "dial_code": "+255", "nameAr": "ØªÙ†Ø²Ø§Ù†ÙŠØ§" },
  { "name": "Thailand", "code": "TH", "emoji": "ğŸ‡¹ğŸ‡­", "unicode": "U+1F1F9 U+1F1ED", "image": "TH.svg", "dial_code": "+66", "nameAr": "ØªØ§ÙŠÙ„Ø§Ù†Ø¯" },
  { "name": "Timor-Leste", "code": "TL", "emoji": "ğŸ‡¹ğŸ‡±", "unicode": "U+1F1F9 U+1F1F1", "image": "TL.svg", "dial_code": "+670", "nameAr": "ØªÙŠÙ…ÙˆØ± Ø§Ù„Ø´Ø±Ù‚ÙŠØ©" },
  { "name": "Togo", "code": "TG", "emoji": "ğŸ‡¹ğŸ‡¬", "unicode": "U+1F1F9 U+1F1E9", "image": "TG.svg", "dial_code": "+228", "nameAr": "ØªÙˆØ¬Ùˆ" },
  { "name": "Tonga", "code": "TO", "emoji": "ğŸ‡¹ğŸ‡´", "unicode": "U+1F1F9 U+1F1F4", "image": "TO.svg", "dial_code": "+676", "nameAr": "ØªÙˆÙ†ØºØ§" },
  { "name": "Trinidad and Tobago", "code": "TT", "emoji": "ğŸ‡¹ğŸ‡¹", "unicode": "U+1F1F9 U+1F1F9", "image": "TT.svg", "dial_code": "+1-868", "nameAr": "ØªØ±ÙŠÙ†ÙŠØ¯Ø§Ø¯ ÙˆØªÙˆØ¨Ø§ØºÙˆ" },
  { "name": "Tunisia", "code": "TN", "emoji": "ğŸ‡¹ğŸ‡³", "unicode": "U+1F1F9 U+1F1F3", "image": "TN.svg", "dial_code": "+216", "nameAr": "ØªÙˆÙ†Ø³" },
  { "name": "Turkey", "code": "TR", "emoji": "ğŸ‡¹ğŸ‡·", "unicode": "U+1F1F9 U+1F1F7", "image": "TR.svg", "dial_code": "+90", "nameAr": "ØªØ±ÙƒÙŠØ§" },
  { "name": "Turkmenistan", "code": "TM", "emoji": "ğŸ‡¹ğŸ‡²", "unicode": "U+1F1F9 U+1F1F2", "image": "TM.svg", "dial_code": "+993", "nameAr": "ØªØ±ÙƒÙ…Ø§Ù†Ø³ØªØ§Ù†" },
  { "name": "Tuvalu", "code": "TV", "emoji": "ğŸ‡¹ğŸ‡»", "unicode": "U+1F1F9 U+1F1FB", "image": "TV.svg", "dial_code": "+688", "nameAr": "ØªÙˆÙØ§Ù„Ùˆ" },
  { "name": "Uganda", "code": "UG", "emoji": "ğŸ‡ºğŸ‡¬", "unicode": "U+1F1FA U+1F1EC", "image": "UG.svg", "dial_code": "+256", "nameAr": "Ø£ÙˆØºÙ†Ø¯Ø§" },
  { "name": "Ukraine", "code": "UA", "emoji": "ğŸ‡ºğŸ‡¦", "unicode": "U+1F1FA U+1F1E6", "image": "UA.svg", "dial_code": "+380", "nameAr": "Ø£ÙˆÙƒØ±Ø§Ù†ÙŠØ§" },

  { "name": "United Kingdom", "code": "GB", "emoji": "ğŸ‡¬ğŸ‡§", "unicode": "U+1F1EC U+1F1E7", "image": "GB.svg", "dial_code": "+44", "nameAr": "Ø§Ù„Ù…Ù…Ù„ÙƒØ© Ø§Ù„Ù…ØªØ­Ø¯Ø©" },
  { "name": "United States", "code": "US", "emoji": "ğŸ‡ºğŸ‡¸", "unicode": "U+1F1FA U+1F1F8", "image": "US.svg", "dial_code": "+1", "nameAr": "Ø§Ù„ÙˆÙ„Ø§ÙŠØ§Øª Ø§Ù„Ù…ØªØ­Ø¯Ø©" },
  { "name": "Uruguay", "code": "UY", "emoji": "ğŸ‡ºğŸ‡¾", "unicode": "U+1F1FA U+1F1F8", "image": "UY.svg", "dial_code": "+598", "nameAr": "Ø£ÙˆØ±ÙˆØºÙˆØ§ÙŠ" },
  { "name": "Uzbekistan", "code": "UZ", "emoji": "ğŸ‡ºğŸ‡¿", "unicode": "U+1F1FA U+1F1FF", "image": "UZ.svg", "dial_code": "+998", "nameAr": "Ø£ÙˆØ²Ø¨ÙƒØ³ØªØ§Ù†" },
  { "name": "Vanuatu", "code": "VU", "emoji": "ğŸ‡»ğŸ‡º", "unicode": "U+1F1FB U+1F1FA", "image": "VU.svg", "dial_code": "+678", "nameAr": "ÙØ§Ù†ÙˆØ§ØªÙˆ" },
  { "name": "Vatican City", "code": "VA", "emoji": "ğŸ‡»ğŸ‡¦", "unicode": "U+1F1FB U+1F1E6", "image": "VA.svg", "dial_code": "+379", "nameAr": "Ø§Ù„ÙØ§ØªÙŠÙƒØ§Ù†" },
  { "name": "Venezuela", "code": "VE", "emoji": "ğŸ‡»ğŸ‡ª", "unicode": "U+1F1FB U+1F1EA", "image": "VE.svg", "dial_code": "+58", "nameAr": "ÙÙ†Ø²ÙˆÙŠÙ„Ø§" },
  { "name": "Vietnam", "code": "VN", "emoji": "ğŸ‡»ğŸ‡³", "unicode": "U+1F1FB U+1F1F3", "image": "VN.svg", "dial_code": "+84", "nameAr": "ÙÙŠØªÙ†Ø§Ù…" },
  { "name": "Yemen", "code": "YE", "emoji": "ğŸ‡¾ğŸ‡ª", "unicode": "U+1F1FE U+1F1EA", "image": "YE.svg", "dial_code": "+967", "nameAr": "Ø§Ù„ÙŠÙ…Ù†" },
  { "name": "Zambia", "code": "ZM", "emoji": "ğŸ‡¿ğŸ‡²", "unicode": "U+1F1FF U+1F1F2", "image": "ZM.svg", "dial_code": "+260", "nameAr": "Ø²Ø§Ù…Ø¨ÙŠØ§" },
  { "name": "Zimbabwe", "code": "ZW", "emoji": "ğŸ‡¿ğŸ‡¼", "unicode": "U+1F1FF U+1F1FC", "image": "ZW.svg", "dial_code": "+263", "nameAr": "Ø²ÙŠÙ…Ø¨Ø§Ø¨ÙˆÙŠ" }
]
